[{"OBJECT_NAME":"COSMO-SKYMED 2","OBJECT_ID":"2007-059A","EPOCH":"2026-03-09T23:42:47.291040","MEAN_MOTION":14.82166446,"ECCENTRICITY":0.00012683,"INCLINATION":97.8865,"RA_OF_ASC_NODE":254.0198,"ARG_OF_PERICENTER":84.565,"MEAN_ANOMALY":275.5708,"EPHEMERIS_TYPE":0,"CLASSIFICATION_TYPE":"U","NORAD_CAT_ID":32376,"ELEMENT_SET_NO":999,"REV_AT_EPOCH":98730,"BSTAR":9.1071047e-5,"MEAN_MOTION_DOT":6.73e-6,"MEAN_MOTION_DDOT":0},{"OBJECT_NAME":"CZ-4B DEB","OBJECT_ID":"2011-079C","EPOCH":"2026-03-08T21:02:31.328736","MEAN_MOTION":14.6200288,"ECCENTRICITY":0.00950915,"INCLINATION":97.9715,"RA_OF_ASC_NODE":94.4508,"ARG_OF_PERICENTER":227.7153,"MEAN_ANOMALY":256.8146,"EPHEMERIS_TYPE":0,"CLASSIFICATION_TYPE":"U","NORAD_CAT_ID":38309,"ELEMENT_SET_NO":999,"REV_AT_EPOCH":74592,"BSTAR":0.00078676119,"MEAN_MOTION_DOT":4.159e-5,"MEAN_MOTION_DDOT":0}]
